[{"OBJECT_NAME":"STARLINK-3241","OBJECT_ID":"2021-115X","EPOCH":"2026-03-09T11:48:35.673120","MEAN_MOTION":15.0884229,"ECCENTRICITY":5.082e-5,"INCLINATION":53.2169,"RA_OF_ASC_NODE":149.9793,"ARG_OF_PERICENTER":60.3093,"MEAN_ANOMALY":299.7949,"EPHEMERIS_TYPE":0,"CLASSIFICATION_TYPE":"U","NORAD_CAT_ID":49745,"ELEMENT_SET_NO":999,"REV_AT_EPOCH":23550,"BSTAR":-1.3707065e-5,"MEAN_MOTION_DOT":-5.06e-6,"MEAN_MOTION_DDOT":0},{"OBJECT_NAME":"EXPLORER 31 (ISIS-X)","OBJECT_ID":"1965-098B","EPOCH":"2026-03-09T10:05:04.973280","MEAN_MOTION":12.08259378,"ECCENTRICITY":0.14227111,"INCLINATION":79.7728,"RA_OF_ASC_NODE":72.1189,"ARG_OF_PERICENTER":330.1362,"MEAN_ANOMALY":22.5343,"EPHEMERIS_TYPE":0,"CLASSIFICATION_TYPE":"U","NORAD_CAT_ID":1806,"ELEMENT_SET_NO":999,"REV_AT_EPOCH":63664,"BSTAR":8.1479819e-5,"MEAN_MOTION_DOT":2.32e-6,"MEAN_MOTION_DDOT":0}]
